49214,ONEWEB-0350,2021,109.63,148.0,+,87.89,Active,1,LEO,Kazakhstan,UK,Commercial,Communications,Soyuz,1 49214U 21083AE  25084.58618144  .00000361  00000+0  95351-3 0  9995,2 49214  87.8940  49.3749 0001568  83.5942 276.5365 13.13468025172046,13.13468025,0.0001568,LEO
49215,ONEWEB-0351,2021,109.03,148.0,+,87.93,Active,1,LEO,Kazakhstan,UK,Commercial,Communications,Soyuz,1 49215U 21083AF  25084.47596100  .00000053  00000+0  98732-4 0  9996,2 49215  87.9331   3.7450 0002138  54.8701 305.2632 13.20774192177543,13.20774192,0.0002138,LEO
49216,ONEWEB-0352,2021,109.63,148.0,+,87.89,Active,1,LEO,Kazakhstan,UK,Commercial,Communications,Soyuz,1 49216U 21083AG  25084.64373605  .00000192  00000+0  49209-3 0  9997,2 49216  87.8943  49.4025 0001954  69.3279 290.8059 13.13468968173443,13.13468968,0.0001954,LEO
49217,ONEWEB-0354,2021,109.03,148.0,+,87.93,Active,1,LEO,Kazakhstan,UK,Commercial,Communications,Soyuz,1 49217U 21083AH  25084.50134038  .00000037  00000+0  59088-4 0  9993,2 49217  87.9336   3.7353 0001506  81.0649 279.0655 13.20774849177589,13.20774849,0.0001506,LEO
49218,ONEWEB-0355,2021,109.63,148.0,+,87.89,Active,1,LEO,Kazakhstan,UK,Commercial,Communications,Soyuz,1 49218U 21083AJ  25084.90104685  .00000192  00000+0  49139-3 0  9990,2 49218  87.8942  49.3495 0001786  77.8253 282.3076 13.13468284173359,13.13468284,0.0001786,LEO
49219,ONEWEB-0357,2021,109.03,148.0,+,87.93,Active,1,LEO,Kazakhstan,UK,Commercial,Communications,Soyuz,1 49219U 21083AK  25084.04365630  .00000035  00000+0  55142-4 0  9993,2 49219  87.9333   3.8350 0001803  72.3400 287.7930 13.20770405177524,13.20770405,0.0001803,LEO
49279,ONEWEB-0332,2021,109.55,148.0,+,87.91,Active,1,LEO,Russia,UK,Commercial,Communications,Soyuz,1 49279U 21090A   25084.50429977  .00000184  00000+0  46225-3 0  9999,2 49279  87.9084  18.9410 0002101  73.8633 286.2727 13.14502333168639,13.14502333,0.0002101,LEO
49280,ONEWEB-0347,2021,109.03,148.0,+,87.93,Active,1,LEO,Russia,UK,Commercial,Communications,Soyuz,1 49280U 21090B   25084.71599702  .00000120  00000+0  26319-3 0  9990,2 49280  87.9335   3.7077 0002242  78.1326 282.0059 13.20770221171843,13.20770221,0.0002242,LEO
